{"type": "FeatureCollection", "features": [{"type": "Feature", "geometry": {"type": "MultiPolygon", "coordinates": [[[[9.212934669126989, 51.48573778715257], [9.212934669131991, 51.485737787152566], [9.21542712285895, 51.48615337084233], [9.2154249785772, 51.48611750982949], [9.21543853461439, 51.486036968925575], [9.215471084959258, 51.48591502915688], [9.215499987784593, 51.48586780453576], [9.215621189868683, 51.48566976958931], [9.215786803258435, 51.48539670440068], [9.215912047880087, 51.48518189852293], [9.216008802317527, 51.48497041992325], [9.21607257617396, 51.484791766088534], [9.216157070257191, 51.484495004223085], [9.216170215701803, 51.48442988068696], [9.216291718224083, 51.48394837828892], [9.216311409646542, 51.48387034210382], [9.216317771899723, 51.483775498641116], [9.215653144016935, 51.48366966526207], [9.215291426608834, 51.483615522914974], [9.214984904922764, 51.48356999868117], [9.214586726015193, 51.48350975930253], [9.21451815920492, 51.48349938585235], [9.214073032865732, 51.483436689260465], [9.214011170383417, 51.48342797566006], [9.214010162647664, 51.48343028015494], [9.214010162667668, 51.48343028015802], [9.214011807212723, 51.483430534736456], [9.213215513251706, 51.48338250650098], [9.212590499067796, 51.48324312303901], [9.211733486348566, 51.48317215083303], [9.210789482728869, 51.48312852692244], [9.209853116465341, 51.48316647481393], [9.209076592494279, 51.48323132721886], [9.209056309469357, 51.483557735893555], [9.209825912867284, 51.48356542325031], [9.211242582364761, 51.48377138815467], [9.212644659831849, 51.48395923068547], [9.21367641955043, 51.484134134888706], [9.213661541263457, 51.484206562482015], [9.213489512388659, 51.48459710214988], [9.21343628476103, 51.48471793798383], [9.213212451467163, 51.485173025783666], [9.212934669126989, 51.48573778715257]]]]}, "properties": {"jahr": 2027, "schlag_id": 126, "name_sl": "Wald-unten-03", "ha_calc": 6.8999, "betrieb_name": "Desenberg GbR", "frucht_kurz": "WW", "inaktiv": 0}}]}